NORAD_CAT_ID,OBJECT_NAME,OBJECT_TYPE,EPOCH,MEAN_MOTION,ECCENTRICITY,INCLINATION,RA_OF_ASC_NODE,ARG_OF_PERICENTER,MEAN_ANOMALY,BSTAR,MEAN_MOTION_DOT,MEAN_MOTION_DDOT,TLE_LINE0,TLE_LINE1,TLE_LINE2,SEMIMAJOR_AXIS,PERIOD,APOGEE,PERIGEE,DECAYED
52602.0,STARLINK-4012,PAYLOAD,2022-07-31 22:00:00,15.08044724,0.0001994,53.2158,70.3392,59.1516,159.9026,-0.0028995,-0.00045158,0.0,0 STARLINK-4012,1 52602U 22052E   22212.91667824 -.00045158  00000-0 -28995-2 0  9998,2 52602  53.2158  70.3392 0001994  59.1516 159.9026 15.08044724 12432,6920.312,95.488,543.557,540.797,0.0
52602.0,STARLINK-4012,PAYLOAD,2022-08-01 06:00:00,15.0766155,0.0001918,53.2166,68.8412,47.1354,182.6099,0.061298,0.01018427,0.0,0 STARLINK-4012,1 52602U 22052E   22213.25001157  .01018427  00000-0  61298-1 0  9997,2 52602  53.2166  68.8412 0001918  47.1354 182.6099 15.07661550 12499,6921.485,95.512,544.677,542.0219999999998,0.0
52602.0,STARLINK-4012,PAYLOAD,2022-08-01 14:00:01,15.08649624,0.0001578,53.2174,67.3437,52.4143,187.8158,0.021969,0.0036606,0.0,0 STARLINK-4012,1 52602U 22052E   22213.58334491  .00366060  00000-0  21969-1 0  9992,2 52602  53.2174  67.3437 0001578  52.4143 187.8158 15.08649624 12544,6918.462,95.45,541.419,539.236,0.0
52602.0,STARLINK-4012,PAYLOAD,2022-08-01 22:00:00,15.08835593,0.000166,53.2174,65.8493,53.1969,198.565,0.00012815,1.752e-05,0.0,0 STARLINK-4012,1 52602U 22052E   22213.91667824  .00001752  00000-0  12815-3 0  9994,2 52602  53.2174  65.8493 0001660  53.1969 198.5650 15.08835593 12598,6917.894,95.438,540.9069999999998,538.61,0.0
52602.0,STARLINK-4012,PAYLOAD,2022-08-02 06:00:02,15.08842161,0.000148,53.2155,64.3575,51.7045,211.83,-0.0021756999999999,-0.0003475,0.0,0 STARLINK-4012,1 52602U 22052E   22214.25002315 -.00034750  00000-0 -21757-2 0  9990,2 52602  53.2155  64.3575 0001480  51.7045 211.8300 15.08842161 12647,6917.874,95.437,540.763,538.715,0.0
52602.0,STARLINK-4012,PAYLOAD,2022-08-02 14:00:01,15.08823829,0.0001422,53.2158,62.8602,59.5876,215.4611,0.0012012,0.00018872,0.0,0 STARLINK-4012,1 52602U 22052E   22214.58334491  .00018872  00000-0  12012-2 0  9998,2 52602  53.2158  62.8602 0001422  59.5876 215.4611 15.08823829 12698,6917.93,95.439,540.779,538.811,0.0
52602.0,STARLINK-4012,PAYLOAD,2022-08-03 06:00:00,15.08857175,0.0001526,53.2158,59.8681,54.7613,243.4495,-0.0049644,-0.00078473,0.0,0 STARLINK-4012,1 52602U 22052E   22215.25001157 -.00078473  00000-0 -49644-2 0  9999,2 52602  53.2158  59.8681 0001526  54.7613 243.4495 15.08857175 12795,6917.828,95.436,540.749,538.637,0.0
52602.0,STARLINK-4012,PAYLOAD,2022-08-03 14:00:01,15.08811588,0.000152,53.2162,58.3711,63.3379,246.4534,0.00088365,0.00013792,0.0,0 STARLINK-4012,1 52602U 22052E   22215.58334491  .00013792  00000-0  88365-3 0  9990,2 52602  53.2162  58.3711 0001520  63.3379 246.4534 15.08811588 12848,6917.967,95.439,540.884,538.781,0.0
52602.0,STARLINK-4012,PAYLOAD,2022-08-03 22:00:01,15.08803312,0.0001679,53.2161,56.8765,55.9129,265.5099,0.00097334,0.00015221,0.0,0 STARLINK-4012,1 52602U 22052E   22215.91668981  .00015221  00000-0  97334-3 0  9996,2 52602  53.2161  56.8765 0001679  55.9129 265.5099 15.08803312  1307,6917.993,95.44,541.019,538.696,0.0
52602.0,STARLINK-4012,PAYLOAD,2022-08-04 14:00:01,15.08826057,0.0001514,53.2161,53.8823,65.1387,279.3472,0.00041179,6.269e-05,0.0,0 STARLINK-4012,1 52602U 22052E   22216.58334491  .00006269  00000-0  41179-3 0  9994,2 52602  53.2161  53.8823 0001514  65.1387 279.3472 15.08826057  1305,6917.9230000000025,95.438,540.835,538.741,0.0
52602.0,STARLINK-4012,PAYLOAD,2022-08-04 22:00:00,15.08811539,0.0001664,53.216,52.3877,57.7591,298.3102,0.0013704,0.00021572,0.0,0 STARLINK-4012,1 52602U 22052E   22216.91667824  .00021572  00000-0  13704-2 0  9996,2 52602  53.2160  52.3877 0001664  57.7591 298.3102 15.08811539  1307,6917.967,95.439,540.984,538.681,0.0
52602.0,STARLINK-4012,PAYLOAD,2022-08-05 14:00:01,15.08839777,0.0001539,53.2159,49.3934,66.5051,312.7766,-6.583e-05,-1.336e-05,0.0,0 STARLINK-4012,1 52602U 22052E   22217.58335648 -.00001336  00000-0 -65830-4 0  9993,2 52602  53.2159  49.3934 0001539  66.5051 312.7766 15.08839777 13141,6917.880999999999,95.438,540.811,538.681,0.0
52602.0,STARLINK-4012,PAYLOAD,2022-08-05 22:00:00,15.08821578,0.0001668,53.2158,47.8988,58.7973,332.0228,0.0019145,0.00030297,0.0,0 STARLINK-4012,1 52602U 22052E   22217.91667824  .00030297  00000-0  19145-2 0  9996,2 52602  53.2158  47.8988 0001668  58.7973 332.0228 15.08821578  1304,6917.937,95.439,540.956,538.648,0.0
52602.0,STARLINK-4012,PAYLOAD,2022-08-06 12:10:20,15.088335,0.0001647,53.2166,45.2462,61.303,298.8127,0.0001137,1.522e-05,0.0,0 STARLINK-4012,1 52602U 22052E   22218.50718640  .00001522  00000-0  11370-3 0  9997,2 52602  53.2166  45.2462 0001647  61.3030 298.8127 15.08833500 13716,6917.9,95.438,540.905,538.626,0.0
52602.0,STARLINK-4012,PAYLOAD,2022-08-06 22:00:00,15.08830665,0.0001699,53.2156,43.4097,58.7611,6.8527,0.0023864,0.00037886,0.0,0 STARLINK-4012,1 52602U 22052E   22218.91667824  .00037886  00000-0  23864-2 0  9991,2 52602  53.2156  43.4097 0001699  58.7611   6.8527 15.08830665 13340,6917.909000000002,95.438,540.9490000000002,538.599,0.0
52602.0,STARLINK-4012,PAYLOAD,2022-08-07 12:01:07,15.08847926,0.0001656,53.2168,40.7856,62.0003,298.1157,0.00012472,1.698e-05,0.0,0 STARLINK-4012,1 52602U 22052E   22219.50077691  .00001698  00000-0  12472-3 0  9990,2 52602  53.2168  40.7856 0001656  62.0003 298.1157 15.08847926 13435,6917.856,95.437,540.867,538.576,0.0
52602.0,STARLINK-4012,PAYLOAD,2022-08-07 22:00:00,15.08818157,0.0001649,53.2157,38.9203,55.6392,44.7977,0.0030229,0.00048121,0.0,0 STARLINK-4012,1 52602U 22052E   22219.91667824  .00048121  00000-0  30229-2 0  9999,2 52602  53.2157  38.9203 0001649  55.6392  44.7977 15.08818157 13494,6917.946999999999,95.439,540.953,538.6709999999998,0.0
52602.0,STARLINK-4012,PAYLOAD,2022-08-08 14:00:01,15.0888589,0.0001556,53.2159,35.9257,61.5466,62.149,-0.0027574,-0.0004396,0.0,0 STARLINK-4012,1 52602U 22052E   22220.58335648 -.00043960  00000-0 -27574-2 0  9997,2 52602  53.2159  35.9257 0001556  61.5466  62.1490 15.08885890 13590,6917.74,95.435,540.682,538.529,0.0
52602.0,STARLINK-4012,PAYLOAD,2022-08-08 22:00:00,15.08824909,0.0001628,53.216,34.4307,52.2313,83.046,0.0030615,0.00048753,0.0,0 STARLINK-4012,1 52602U 22052E   22220.91667824  .00048753  00000-0  30615-2 0  9991,2 52602  53.2160  34.4307 0001628  52.2313  83.0460 15.08824909  1309,6917.927,95.439,540.918,538.665,0.0
52602.0,STARLINK-4012,PAYLOAD,2022-08-09 14:00:01,15.0885952,0.0001568,53.2163,31.4363,60.9503,97.5071,-0.0038126999999999,-0.0006048999999999,0.0,0 STARLINK-4012,1 52602U 22052E   22221.58334491 -.00060490  00000-0 -38127-2 0  9996,2 52602  53.2163  31.4363 0001568  60.9503  97.5071 15.08859520 13747,6917.821,95.436,540.77,538.601,0.0
52602.0,STARLINK-4012,PAYLOAD,2022-08-09 22:00:00,15.08787301,0.0001617,53.2162,29.9411,51.326,118.7308,0.0035286,0.00056237,0.0,0 STARLINK-4012,1 52602U 22052E   22221.91667824  .00056237  00000-0  35286-2 0  9997,2 52602  53.2162  29.9411 0001617  51.3260 118.7308 15.08787301  1306,6918.041,95.441,541.025,538.788,0.0
52602.0,STARLINK-4012,PAYLOAD,2022-08-10 06:00:00,15.08810501,0.0001448,53.2163,28.443,57.4749,124.1459,0.0015452,0.0002437,0.0,0 STARLINK-4012,1 52602U 22052E   22222.25001157  .00024370  00000-0  15452-2 0  9992,2 52602  53.2163  28.4430 0001448  57.4749 124.1459 15.08810501 13842,6917.971,95.439,540.837,538.8340000000002,0.0
52602.0,STARLINK-4012,PAYLOAD,2022-08-10 14:00:01,15.08843141,0.0001499,53.2166,26.947,59.3255,133.8589,-0.0010817,-0.00017463,0.0,0 STARLINK-4012,1 52602U 22052E   22222.58334491 -.00017463  00000-0 -10817-2 0  9995,2 52602  53.2166  26.9470 0001499  59.3255 133.8589 15.08843141  1306,6917.871,95.437,540.773,538.6990000000002,0.0
52602.0,STARLINK-4012,PAYLOAD,2022-08-10 22:00:00,15.08812113,0.0001607,53.2163,25.4517,51.8439,152.9354,0.0032346,0.00051528,0.0,0 STARLINK-4012,1 52602U 22052E   22222.91667824  .00051528  00000-0  32346-2 0  9990,2 52602  53.2163  25.4517 0001607  51.8439 152.9354 15.08812113  1308,6917.965999999999,95.439,540.942,538.719,0.0
52602.0,STARLINK-4012,PAYLOAD,2022-08-11 06:00:02,15.08837973,0.0001468,53.2164,23.9534,59.6612,156.769,-0.00086755,-0.00014068,0.0,0 STARLINK-4012,1 52602U 22052E   22223.25002315 -.00014068  00000-0 -86755-3 0  9990,2 52602  53.2164  23.9534 0001468  59.6612 156.7690 15.08837973 13999,6917.887,95.438,540.7669999999998,538.736,0.0
52602.0,STARLINK-4012,PAYLOAD,2022-08-11 14:00:01,15.0883251,0.0001584,53.2166,22.4578,62.0241,165.928,-0.0013422,-0.00021581,0.0,0 STARLINK-4012,1 52602U 22052E   22223.58334491 -.00021581  00000-0 -13422-2 0  9997,2 52602  53.2166  22.4578 0001584  62.0241 165.9280 15.08832510  1309,6917.903,95.438,540.864,538.672,0.0
52602.0,STARLINK-4012,PAYLOAD,2022-08-12 06:00:00,15.088138399999998,0.0001513,53.2163,19.4641,62.3658,188.7522,0.0024053,0.00038173,0.0,0 STARLINK-4012,1 52602U 22052E   22224.25001157  .00038173  00000-0  24053-2 0  9997,2 52602  53.2163  19.4641 0001513  62.3658 188.7522 15.08813840 14154,6917.96,95.439,540.872,538.779,0.0
52602.0,STARLINK-4012,PAYLOAD,2022-08-12 14:00:01,15.08857173,0.0001575999999999,53.2164,17.9687,62.1655,200.533,-0.0011335,-0.00018291,0.0,0 STARLINK-4012,1 52602U 22052E   22224.58334491 -.00018291  00000-0 -11335-2 0  9993,2 52602  53.2164  17.9687 0001576  62.1655 200.5330 15.08857173  1302,6917.828,95.436,540.783,538.6030000000002,0.0
52602.0,STARLINK-4012,PAYLOAD,2022-08-12 22:00:01,15.08839127,0.0001619,53.216,16.4731,55.4244,218.9439,0.0018442999999999,0.00029185,0.0,0 STARLINK-4012,1 52602U 22052E   22224.91668981  .00029185  00000-0  18443-2 0  9993,2 52602  53.2160  16.4731 0001619  55.4244 218.9439 15.08839127  1301,6917.8830000000025,95.438,540.868,538.628,0.0
